[
   {
      "name": "STARLINK-2348",
      "line1": "1 47888U 21021AE  21092.91668981  .00069528  00000-0  49695-3 0  9999",
      "line2": "2 47888  53.0497 120.9830 0001248  57.4273 131.9017 15.73137602  1773",
      "bstar": 49.695,
      "inc": 53.0497,
      "raan": 120.983,
      "ecc": 0.0001248,
      "argp": 57.4273,
      "nu": 131.9017,
      "mmo": 15.73137602,
      "a": 6728.07308
   },
   {
      "name": "STARLINK-2349",
      "line1": "1 47889U 21021AF  21092.91668981  .00068433  00000-0  48848-3 0  9993",
      "line2": "2 47889  53.0497 120.9877 0001364  62.0502 125.3513 15.73174924  1777",
      "bstar": 48.848,
      "inc": 53.0497,
      "raan": 120.9877,
      "ecc": 0.0001364,
      "argp": 62.0502,
      "nu": 125.3513,
      "mmo": 15.73174924,
      "a": 6727.96667
   },
   {
      "name": "STARLINK-2350",
      "line1": "1 47890U 21021AG  21092.91668981  .00070932  00000-0  50654-3 0  9990",
      "line2": "2 47890  53.0490 120.9326 0001356  62.1943 150.5724 15.73150097  1771",
      "bstar": 50.654,
      "inc": 53.049,
      "raan": 120.9326,
      "ecc": 0.0001356,
      "argp": 62.1943,
      "nu": 150.5724,
      "mmo": 15.73150097,
      "a": 6728.03745
   },
   {
      "name": "STARLINK-2351",
      "line1": "1 47891U 21021AH  21092.91668981  .00074664  00000-0  53291-3 0  9997",
      "line2": "2 47891  53.0488 120.9172 0001492  63.5560 156.2245 15.73141818  1771",
      "bstar": 53.291,
      "inc": 53.0488,
      "raan": 120.9172,
      "ecc": 0.0001492,
      "argp": 63.556,
      "nu": 156.2245,
      "mmo": 15.73141818,
      "a": 6728.06106
   },
   {
      "name": "STARLINK-2352",
      "line1": "1 47892U 21021AJ  21092.91668981  .00069949  00000-0  49920-3 0  9992",
      "line2": "2 47892  53.0492 120.9316 0001306  59.0326 154.3671 15.73170810  1777",
      "bstar": 49.92,
      "inc": 53.0492,
      "raan": 120.9316,
      "ecc": 0.0001306,
      "argp": 59.0326,
      "nu": 154.3671,
      "mmo": 15.7317081,
      "a": 6727.9784
   },
   {
      "name": "STARLINK-2353",
      "line1": "1 47893U 21021AK  21092.91668981  .00076289  00000-0  51247-3 0  9993",
      "line2": "2 47893  53.0478 120.4341 0001246  60.4394  34.9896 15.74545659  1779",
      "bstar": 51.247,
      "inc": 53.0478,
      "raan": 120.4341,
      "ecc": 0.0001246,
      "argp": 60.4394,
      "nu": 34.9896,
      "mmo": 15.74545659,
      "a": 6724.06137
   },
   {
      "name": "STARLINK-2354",
      "line1": "1 47894U 21021AL  21092.91668981  .00068989  00000-0  49325-3 0  9996",
      "line2": "2 47894  53.0495 120.9468 0001257  57.9431 148.5054 15.73133548  1776",
      "bstar": 49.325,
      "inc": 53.0495,
      "raan": 120.9468,
      "ecc": 0.0001257,
      "argp": 57.9431,
      "nu": 148.5054,
      "mmo": 15.73133548,
      "a": 6728.08464
   },
   {
      "name": "STARLINK-2355",
      "line1": "1 47895U 21021AM  21092.91668981  .00050580  00000-0  36261-3 0  9990",
      "line2": "2 47895  53.0493 120.9517 0001249  61.3845 142.5290 15.73197394  1774",
      "bstar": 36.261,
      "inc": 53.0493,
      "raan": 120.9517,
      "ecc": 0.0001249,
      "argp": 61.3845,
      "nu": 142.529,
      "mmo": 15.73197394,
      "a": 6727.9026
   },
   {
      "name": "STARLINK-2356",
      "line1": "1 47896U 21021AN  21092.91668981  .00049261  00000-0  35348-3 0  9990",
      "line2": "2 47896  53.0495 120.9480 0001258  63.6132 142.2441 15.73187082  1778",
      "bstar": 35.348,
      "inc": 53.0495,
      "raan": 120.948,
      "ecc": 0.0001258,
      "argp": 63.6132,
      "nu": 142.2441,
      "mmo": 15.73187082,
      "a": 6727.932
   },
   {
      "name": "STARLINK-2357",
      "line1": "1 47897U 21021AP  21092.91668981  .00070055  00000-0  50013-3 0  9992",
      "line2": "2 47897  53.0493 120.9502 0001119  56.1119 148.4865 15.73162323  1779",
      "bstar": 50.013,
      "inc": 53.0493,
      "raan": 120.9502,
      "ecc": 0.0001119,
      "argp": 56.1119,
      "nu": 148.4865,
      "mmo": 15.73162323,
      "a": 6728.0026
   },
   {
      "name": "STARLINK-2358",
      "line1": "1 47898U 21021AQ  21092.91668981  .00035512  00000-0  25686-3 0  9990",
      "line2": "2 47898  53.0493 120.9490 0001036  64.6805 140.5464 15.73151581  1772",
      "bstar": 25.686,
      "inc": 53.0493,
      "raan": 120.949,
      "ecc": 0.0001036,
      "argp": 64.6805,
      "nu": 140.5464,
      "mmo": 15.73151581,
      "a": 6728.03322
   },
   {
      "name": "STARLINK-2359",
      "line1": "1 47899U 21021AR  21092.91668981  .00068033  00000-0  48618-3 0  9995",
      "line2": "2 47899  53.0496 120.9638 0001444  62.4043 135.8220 15.73150375  1770",
      "bstar": 48.618,
      "inc": 53.0496,
      "raan": 120.9638,
      "ecc": 0.0001444,
      "argp": 62.4043,
      "nu": 135.822,
      "mmo": 15.73150375,
      "a": 6728.03666
   },
   {
      "name": "STARLINK-2360",
      "line1": "1 47900U 21021AS  21092.91668981  .00070533  00000-0  50321-3 0  9990",
      "line2": "2 47900  53.0493 120.9528 0001083  55.8172 147.4494 15.73175048  1772",
      "bstar": 50.321,
      "inc": 53.0493,
      "raan": 120.9528,
      "ecc": 0.0001083,
      "argp": 55.8172,
      "nu": 147.4494,
      "mmo": 15.73175048,
      "a": 6727.96631
   },
   {
      "name": "STARLINK-2361",
      "line1": "1 47901U 21021AT  21092.91668981  .00071042  00000-0  50703-3 0  9991",
      "line2": "2 47901  53.0494 120.9555 0001083  54.2026 147.8068 15.73163438  1776",
      "bstar": 50.703,
      "inc": 53.0494,
      "raan": 120.9555,
      "ecc": 0.0001083,
      "argp": 54.2026,
      "nu": 147.8068,
      "mmo": 15.73163438,
      "a": 6727.99942
   },
   {
      "name": "STARLINK-2362",
      "line1": "1 47902U 21021AU  21092.91668981  .00068047  00000-0  48642-3 0  9992",
      "line2": "2 47902  53.0490 120.9194 0001274  62.2900 156.9202 15.73143630  1777",
      "bstar": 48.642,
      "inc": 53.049,
      "raan": 120.9194,
      "ecc": 0.0001274,
      "argp": 62.29,
      "nu": 156.9202,
      "mmo": 15.7314363,
      "a": 6728.05589
   },
   {
      "name": "STARLINK-2363",
      "line1": "1 47903U 21021AV  21092.91668981  .00069546  00000-0  49639-3 0  9995",
      "line2": "2 47903  53.0496 120.9668 0000982 358.1635 198.7472 15.73170340  1778",
      "bstar": 49.639,
      "inc": 53.0496,
      "raan": 120.9668,
      "ecc": 9.82e-05,
      "argp": 358.1635,
      "nu": 198.7472,
      "mmo": 15.7317034,
      "a": 6727.97974
   },
   {
      "name": "STARLINK-2364",
      "line1": "1 47904U 21021AW  21092.91668981  .00070233  00000-0  50146-3 0  9996",
      "line2": "2 47904  53.0496 120.9613 0001644  67.8015 131.6536 15.73157913  1779",
      "bstar": 50.146,
      "inc": 53.0496,
      "raan": 120.9613,
      "ecc": 0.0001644,
      "argp": 67.8015,
      "nu": 131.6536,
      "mmo": 15.73157913,
      "a": 6728.01517
   },
   {
      "name": "STARLINK-2365",
      "line1": "1 47905U 21021AX  21092.91668981  .00070809  00000-0  50567-3 0  9993",
      "line2": "2 47905  53.0494 120.9650 0000977  56.5442 141.0488 15.73150698  1770",
      "bstar": 50.567,
      "inc": 53.0494,
      "raan": 120.965,
      "ecc": 9.77e-05,
      "argp": 56.5442,
      "nu": 141.0488,
      "mmo": 15.73150698,
      "a": 6728.03574
   },
   {
      "name": "STARLINK-2366",
      "line1": "1 47906U 21021AY  21092.91668981  .00070449  00000-0  50303-3 0  9992",
      "line2": "2 47906  53.0495 120.9627 0001337  66.4208 132.3981 15.73155727  1776",
      "bstar": 50.303,
      "inc": 53.0495,
      "raan": 120.9627,
      "ecc": 0.0001337,
      "argp": 66.4208,
      "nu": 132.3981,
      "mmo": 15.73155727,
      "a": 6728.0214
   },
   {
      "name": "STARLINK-2367",
      "line1": "1 47907U 21021AZ  21092.91668981  .00070073  00000-0  49985-3 0  9990",
      "line2": "2 47907  53.0493 120.9409 0001311  56.7980 152.1839 15.73181056  1770",
      "bstar": 49.985,
      "inc": 53.0493,
      "raan": 120.9409,
      "ecc": 0.0001311,
      "argp": 56.798,
      "nu": 152.1839,
      "mmo": 15.73181056,
      "a": 6727.94919
   },
   {
      "name": "STARLINK-2368",
      "line1": "1 47908U 21021BA  21092.91668981  .00069814  00000-0  49789-3 0  9994",
      "line2": "2 47908  53.0491 120.9377 0001001  51.3993 158.9314 15.73188088  1778",
      "bstar": 49.789,
      "inc": 53.0491,
      "raan": 120.9377,
      "ecc": 0.0001001,
      "argp": 51.3993,
      "nu": 158.9314,
      "mmo": 15.73188088,
      "a": 6727.92914
   },
   {
      "name": "STARLINK-2369",
      "line1": "1 47909U 21021BB  21092.91668981  .00068874  00000-0  49224-3 0  9994",
      "line2": "2 47909  53.0498 120.9824 0001025  55.9047 134.0374 15.73143365  1779",
      "bstar": 49.224,
      "inc": 53.0498,
      "raan": 120.9824,
      "ecc": 0.0001025,
      "argp": 55.9047,
      "nu": 134.0374,
      "mmo": 15.73143365,
      "a": 6728.05665
   },
   {
      "name": "STARLINK-2370",
      "line1": "1 47910U 21021BC  21092.91668981  .00070031  00000-0  50077-3 0  9992",
      "line2": "2 47910  53.0492 120.9542 0001125  57.8888 144.8024 15.73124173  1774",
      "bstar": 50.077,
      "inc": 53.0492,
      "raan": 120.9542,
      "ecc": 0.0001125,
      "argp": 57.8888,
      "nu": 144.8024,
      "mmo": 15.73124173,
      "a": 6728.11137
   },
   {
      "name": "STARLINK-2371",
      "line1": "1 47911U 21021BD  21092.91668981 -.00005614  00000-0 -35645-4 0  9995",
      "line2": "2 47911  53.0497 120.9936 0001145  53.3658 130.8831 15.73172933  1773",
      "bstar": -3.5645,
      "inc": 53.0497,
      "raan": 120.9936,
      "ecc": 0.0001145,
      "argp": 53.3658,
      "nu": 130.8831,
      "mmo": 15.73172933,
      "a": 6727.97234
   }
]